start=new Date('2022-12-29T00:00:00.000Z').valueOf();
sats=[{"OBJECT_ID":"2021-024AV","ELEMENT_SET_NO":"999","SEMIMAJOR_AXIS":"6925.330","LAUNCH_DATE":"2021-03-24","ECCENTRICITY":"0.00010740","REF_FRAME":"TEME","FILE":"3724805","MEAN_MOTION":"15.06406030","REV_AT_EPOCH":"9954","DECAY_DATE":null,"MEAN_ELEMENT_THEORY":"SGP4","MEAN_MOTION_DDOT":"0.0000000000000","INCLINATION":"53.0541","RCS_SIZE":"LARGE","OBJECT_NAME":"STARLINK-2294","OBJECT_TYPE":"PAYLOAD","PERIOD":"95.592","NORAD_CAT_ID":"48020","TLE_LINE1":"1 48020U 21024AV  22362.45278062  .00001071  00000-0  90779-4 0  9997","EPOCH":"2022-12-28T10:52:00.245568","PERIAPSIS":"546.451","GP_ID":"221661533","EPHEMERIS_TYPE":"0","SITE":"AFETR","COUNTRY_CODE":"US","CENTER_NAME":"EARTH","APOAPSIS":"547.939","MEAN_ANOMALY":"322.8013","CLASSIFICATION_TYPE":"U","BSTAR":"0.00009077900000","ARG_OF_PERICENTER":"37.3050","RA_OF_ASC_NODE":"106.9574","MEAN_MOTION_DOT":"0.00001071","TLE_LINE2":"2 48020  53.0541 106.9574 0001074  37.3050 322.8013 15.06406030 99547","TIME_SYSTEM":"UTC"},{"CENTER_NAME":"EARTH","COUNTRY_CODE":"US","SITE":"AFETR","EPHEMERIS_TYPE":"0","MEAN_ANOMALY":"308.0476","APOAPSIS":"548.054","PERIAPSIS":"546.319","EPOCH":"2022-12-28T11:09:51.150240","TLE_LINE1":"1 48021U 21024AW  22362.46517535  .00001575  00000-0  12459-3 0  9997","GP_ID":"221662284","MEAN_MOTION_DOT":"0.00001575","TIME_SYSTEM":"UTC","TLE_LINE2":"2 48021  53.0532 111.4999 0001253  52.0626 308.0476 15.06408746 99491","ARG_OF_PERICENTER":"52.0626","BSTAR":"0.00012459000000","CLASSIFICATION_TYPE":"U","RA_OF_ASC_NODE":"111.4999","MEAN_ELEMENT_THEORY":"SGP4","DECAY_DATE":null,"REV_AT_EPOCH":"9949","MEAN_MOTION":"15.06408746","MEAN_MOTION_DDOT":"0.0000000000000","INCLINATION":"53.0532","ELEMENT_SET_NO":"999","OBJECT_ID":"2021-024AW","FILE":"3724805","REF_FRAME":"TEME","ECCENTRICITY":"0.00012530","LAUNCH_DATE":"2021-03-24","SEMIMAJOR_AXIS":"6925.322","PERIOD":"95.592","NORAD_CAT_ID":"48021","RCS_SIZE":"LARGE","OBJECT_TYPE":"PAYLOAD","OBJECT_NAME":"STARLINK-2301"},{"MEAN_MOTION_DDOT":"0.0000000000000","INCLINATION":"53.0533","REV_AT_EPOCH":"9872","DECAY_DATE":null,"MEAN_ELEMENT_THEORY":"SGP4","MEAN_MOTION":"15.06404407","REF_FRAME":"TEME","FILE":"3725038","LAUNCH_DATE":"2021-03-24","SEMIMAJOR_AXIS":"6925.335","ECCENTRICITY":"0.00014400","ELEMENT_SET_NO":"999","OBJECT_ID":"2021-024AX","NORAD_CAT_ID":"48022","PERIOD":"95.592","OBJECT_TYPE":"PAYLOAD","OBJECT_NAME":"STARLINK-2298","RCS_SIZE":"LARGE","APOAPSIS":"548.197","MEAN_ANOMALY":"270.9800","CENTER_NAME":"EARTH","EPHEMERIS_TYPE":"0","SITE":"AFETR","COUNTRY_CODE":"US","GP_ID":"221693208","EPOCH":"2022-12-28T15:00:48.362400","PERIAPSIS":"546.203","TLE_LINE1":"1 48022U 21024AX  22362.62555975  .00001611  00000-0  12700-3 0  9996","TLE_LINE2":"2 48022  53.0533 171.0540 0001440  89.1354 270.9800 15.06404407 98727","TIME_SYSTEM":"UTC","MEAN_MOTION_DOT":"0.00001611","RA_OF_ASC_NODE":"171.0540","ARG_OF_PERICENTER":"89.1354","CLASSIFICATION_TYPE":"U","BSTAR":"0.00012700000000"},{"RA_OF_ASC_NODE":"169.9367","BSTAR":"0.00013466000000","CLASSIFICATION_TYPE":"U","ARG_OF_PERICENTER":"92.7350","TLE_LINE2":"2 48023  53.0531 169.9367 0001545  92.7350 267.3816 15.06402717 98225","TIME_SYSTEM":"UTC","MEAN_MOTION_DOT":"0.00001725","GP_ID":"221670881","TLE_LINE1":"1 48023U 21024AY  22362.81350958  .00001725  00000-0  13466-3 0  9998","EPOCH":"2022-12-28T19:31:27.227712","PERIAPSIS":"546.135","APOAPSIS":"548.275","MEAN_ANOMALY":"267.3816","EPHEMERIS_TYPE":"0","COUNTRY_CODE":"US","SITE":"AFETR","CENTER_NAME":"EARTH","OBJECT_NAME":"STARLINK-2292","OBJECT_TYPE":"PAYLOAD","RCS_SIZE":"LARGE","NORAD_CAT_ID":"48023","PERIOD":"95.592","SEMIMAJOR_AXIS":"6925.340","LAUNCH_DATE":"2021-03-24","ECCENTRICITY":"0.00015450","REF_FRAME":"TEME","FILE":"3724963","OBJECT_ID":"2021-024AY","ELEMENT_SET_NO":"999","MEAN_MOTION_DDOT":"0.0000000000000","INCLINATION":"53.0531","MEAN_MOTION":"15.06402717","REV_AT_EPOCH":"9822","DECAY_DATE":null,"MEAN_ELEMENT_THEORY":"SGP4"},{"RCS_SIZE":"LARGE","OBJECT_TYPE":"PAYLOAD","OBJECT_NAME":"STARLINK-2278","PERIOD":"95.592","NORAD_CAT_ID":"48026","ELEMENT_SET_NO":"999","OBJECT_ID":"2021-024BB","FILE":"3725038","REF_FRAME":"TEME","ECCENTRICITY":"0.00013170","LAUNCH_DATE":"2021-03-24","SEMIMAJOR_AXIS":"6925.349","DECAY_DATE":null,"MEAN_ELEMENT_THEORY":"SGP4","REV_AT_EPOCH":"9859","MEAN_MOTION":"15.06399846","MEAN_MOTION_DDOT":"0.0000000000000","INCLINATION":"53.0544","ARG_OF_PERICENTER":"114.0605","CLASSIFICATION_TYPE":"U","BSTAR":"0.00010361000000","RA_OF_ASC_NODE":"175.9188","MEAN_MOTION_DOT":"0.00001262","TIME_SYSTEM":"UTC","TLE_LINE2":"2 48026  53.0544 175.9188 0001317 114.0605 246.0521 15.06399846 98593","PERIAPSIS":"546.302","EPOCH":"2022-12-28T14:14:58.586496","TLE_LINE1":"1 48026U 21024BB  22362.59373364  .00001262  00000-0  10361-3 0  9999","GP_ID":"221694208","CENTER_NAME":"EARTH","SITE":"AFETR","COUNTRY_CODE":"US","EPHEMERIS_TYPE":"0","MEAN_ANOMALY":"246.0521","APOAPSIS":"548.126"},{"GP_ID":"221694450","PERIAPSIS":"546.172","EPOCH":"2022-12-28T18:03:52.014240","TLE_LINE1":"1 48027U 21024BC  22362.75268535  .00000966  00000-0  83711-4 0  9991","APOAPSIS":"548.227","MEAN_ANOMALY":"271.0519","CENTER_NAME":"EARTH","EPHEMERIS_TYPE":"0","SITE":"AFETR","COUNTRY_CODE":"US","RA_OF_ASC_NODE":"150.1965","ARG_OF_PERICENTER":"89.0640","BSTAR":"0.00008371100000","CLASSIFICATION_TYPE":"U","TLE_LINE2":"2 48027  53.0542 150.1965 0001484  89.0640 271.0519 15.06404526 98963","TIME_SYSTEM":"UTC","MEAN_MOTION_DOT":"0.00000966","REF_FRAME":"TEME","FILE":"3725038","LAUNCH_DATE":"2021-03-24","SEMIMAJOR_AXIS":"6925.335","ECCENTRICITY":"0.00014840","ELEMENT_SET_NO":"999","OBJECT_ID":"2021-024BC","MEAN_MOTION_DDOT":"0.0000000000000","INCLINATION":"53.0542","REV_AT_EPOCH":"9896","DECAY_DATE":null,"MEAN_ELEMENT_THEORY":"SGP4","MEAN_MOTION":"15.06404526","OBJECT_TYPE":"PAYLOAD","OBJECT_NAME":"STARLINK-2300","RCS_SIZE":"LARGE","NORAD_CAT_ID":"48027","PERIOD":"95.592"},{"SEMIMAJOR_AXIS":"6925.317","LAUNCH_DATE":"2021-03-24","ECCENTRICITY":"0.00018480","REF_FRAME":"TEME","FILE":"3724805","OBJECT_ID":"2021-024BD","ELEMENT_SET_NO":"999","MEAN_MOTION_DDOT":"0.0000000000000","INCLINATION":"53.0546","MEAN_MOTION":"15.06410350","REV_AT_EPOCH":"9958","MEAN_ELEMENT_THEORY":"SGP4","DECAY_DATE":null,"OBJECT_NAME":"STARLINK-2264","OBJECT_TYPE":"PAYLOAD","RCS_SIZE":"LARGE","NORAD_CAT_ID":"48028","PERIOD":"95.591","GP_ID":"221663036","TLE_LINE1":"1 48028U 21024BD  22362.33852011 -.00000215  00000-0  44774-5 0  9999","EPOCH":"2022-12-28T08:07:28.137504","PERIAPSIS":"545.902","APOAPSIS":"548.462","MEAN_ANOMALY":"311.6162","EPHEMERIS_TYPE":"0","SITE":"AFETR","COUNTRY_CODE":"US","CENTER_NAME":"EARTH","RA_OF_ASC_NODE":"107.4646","CLASSIFICATION_TYPE":"U","BSTAR":"0.00000447740000","ARG_OF_PERICENTER":"48.4985","TLE_LINE2":"2 48028  53.0546 107.4646 0001848  48.4985 311.6162 15.06410350 99580","TIME_SYSTEM":"UTC","MEAN_MOTION_DOT":"-0.00000215"},{"EPHEMERIS_TYPE":"0","COUNTRY_CODE":"US","SITE":"AFETR","CENTER_NAME":"EARTH","APOAPSIS":"548.207","MEAN_ANOMALY":"277.2925","TLE_LINE1":"1 48029U 21024BE  22362.85773457 -.00000683  00000-0 -26973-4 0  9993","EPOCH":"2022-12-28T20:35:08.266848","PERIAPSIS":"546.222","GP_ID":"221693457","MEAN_MOTION_DOT":"-0.00000683","TLE_LINE2":"2 48029  53.0542 169.7216 0001433  82.8227 277.2925 15.06399667 98762","TIME_SYSTEM":"UTC","BSTAR":"-0.00002697300000","CLASSIFICATION_TYPE":"U","ARG_OF_PERICENTER":"82.8227","RA_OF_ASC_NODE":"169.7216","MEAN_MOTION":"15.06399667","REV_AT_EPOCH":"9876","MEAN_ELEMENT_THEORY":"SGP4","DECAY_DATE":null,"INCLINATION":"53.0542","MEAN_MOTION_DDOT":"0.0000000000000","OBJECT_ID":"2021-024BE","ELEMENT_SET_NO":"999","SEMIMAJOR_AXIS":"6925.350","LAUNCH_DATE":"2021-03-24","ECCENTRICITY":"0.00014330","REF_FRAME":"TEME","FILE":"3725038","PERIOD":"95.592","NORAD_CAT_ID":"48029","RCS_SIZE":"LARGE","OBJECT_NAME":"STARLINK-2299","OBJECT_TYPE":"PAYLOAD"},{"PERIOD":"95.592","NORAD_CAT_ID":"48030","RCS_SIZE":"LARGE","OBJECT_TYPE":"PAYLOAD","OBJECT_NAME":"STARLINK-2268","DECAY_DATE":null,"MEAN_ELEMENT_THEORY":"SGP4","REV_AT_EPOCH":"9859","MEAN_MOTION":"15.06400024","INCLINATION":"53.0530","MEAN_MOTION_DDOT":"0.0000000000000","ELEMENT_SET_NO":"999","OBJECT_ID":"2021-024BF","FILE":"3725038","REF_FRAME":"TEME","ECCENTRICITY":"0.00013420","SEMIMAJOR_AXIS":"6925.348","LAUNCH_DATE":"2021-03-24","MEAN_MOTION_DOT":"0.00001738","TIME_SYSTEM":"UTC","TLE_LINE2":"2 48030  53.0530 175.8081 0001342  90.0298 270.0844 15.06400024 98599","ARG_OF_PERICENTER":"90.0298","CLASSIFICATION_TYPE":"U","BSTAR":"0.00013552000000","RA_OF_ASC_NODE":"175.8081","CENTER_NAME":"EARTH","SITE":"AFETR","COUNTRY_CODE":"US","EPHEMERIS_TYPE":"0","MEAN_ANOMALY":"270.0844","APOAPSIS":"548.143","PERIAPSIS":"546.284","EPOCH":"2022-12-28T14:52:08.505696","TLE_LINE1":"1 48030U 21024BF  22362.61954289  .00001738  00000-0  13552-3 0  9991","GP_ID":"221694708"},{"NORAD_CAT_ID":"48031","PERIOD":"95.593","OBJECT_TYPE":"PAYLOAD","OBJECT_NAME":"STARLINK-2267","RCS_SIZE":"MEDIUM","MEAN_MOTION_DDOT":"0.0000000000000","INCLINATION":"53.0565","MEAN_ELEMENT_THEORY":"SGP4","DECAY_DATE":null,"REV_AT_EPOCH":"10020","MEAN_MOTION":"15.06381779","FILE":"3725038","REF_FRAME":"TEME","ECCENTRICITY":"0.00012160","SEMIMAJOR_AXIS":"6925.404","LAUNCH_DATE":"2021-03-24","ELEMENT_SET_NO":"999","OBJECT_ID":"2021-024BG","TIME_SYSTEM":"UTC","TLE_LINE2":"2 48031  53.0565  60.9351 0001216  38.7759 321.3317 15.06381779100205","MEAN_MOTION_DOT":"0.00002680","RA_OF_ASC_NODE":"60.9351","ARG_OF_PERICENTER":"38.7759","BSTAR":"0.00019884000000","CLASSIFICATION_TYPE":"U","MEAN_ANOMALY":"321.3317","APOAPSIS":"548.112","CENTER_NAME":"EARTH","COUNTRY_CODE":"US","SITE":"AFETR","EPHEMERIS_TYPE":"0","GP_ID":"221694950","EPOCH":"2022-12-28T14:11:39.442272","PERIAPSIS":"546.427","TLE_LINE1":"1 48031U 21024BG  22362.59142873  .00002680  00000-0  19884-3 0  9998"}];
